0 COSMOS 2251 DEB
1 37089U 93036BFK 13281.25057541  .00003679  00000-0  15178-2 0  1566
2 37089 074.0435 260.6439 0227530 356.7583 003.2131 14.14103095202077
0 COSMOS 2251 DEB
1 37089U 93036BFK 13292.21524925  .00006633  00000-0  27176-2 0  1574
2 37089 074.0483 241.2190 0227906 334.6246 024.3837 14.14231787203626
0 COSMOS 2251 DEB
1 37089U 93036BFK 13294.19585500  .00005018  00000-0  20825-2 0  1580
2 37089 074.0568 237.7399 0222554 330.6444 028.2505 14.14242262203907
0 COSMOS 2251 DEB
1 37089U 93036BFK 13295.18615401  .00005060  00000-0  21035-2 0  1596
2 37089 074.0577 235.9883 0221668 328.7086 030.1353 14.14253528204046
